NORAD_CAT_ID,OBJECT_NAME,OBJECT_TYPE,EPOCH,MEAN_MOTION,ECCENTRICITY,INCLINATION,RA_OF_ASC_NODE,ARG_OF_PERICENTER,MEAN_ANOMALY,BSTAR,MEAN_MOTION_DOT,MEAN_MOTION_DDOT,TLE_LINE0,TLE_LINE1,TLE_LINE2,SEMIMAJOR_AXIS,PERIOD,APOGEE,PERIGEE,DECAYED
52994.0,STARLINK-4256,PAYLOAD,2024-08-04 06:02:07,15.08840123,0.0001504,53.2165,188.7865,85.7844,274.332,7.3783e-05,8.86e-06,0.0,0 STARLINK-4256,1 52994U 22076J   24217.25147412  .00000886  00000-0  73783-4 0  9992,2 52994  53.2165 188.7865 0001504  85.7844 274.3320 15.08840123114911,6917.88,95.438,540.785,538.705,0.0
52994.0,STARLINK-4256,PAYLOAD,2024-08-04 21:55:58,15.08843734,0.0001658,53.2175,185.8133,89.9724,270.1458,9.1754e-05,1.173e-05,0.0,0 STARLINK-4256,1 52994U 22076J   24217.91387128  .00001173  00000-0  91754-4 0  9993,2 52994  53.2175 185.8133 0001658  89.9724 270.1458 15.08843734115010,6917.869,95.437,540.881,538.587,0.0
52994.0,STARLINK-4256,PAYLOAD,2024-08-05 04:17:30,15.08846682,0.0001442,53.2168,184.6224,94.1755,265.9402,6.865e-05,8.05e-06,0.0,0 STARLINK-4256,1 52994U 22076J   24218.17882917  .00000805  00000-0  68650-4 0  9998,2 52994  53.2168 184.6224 0001442  94.1755 265.9402 15.08846682115525,6917.86,95.437,540.723,538.727,0.0
52994.0,STARLINK-4256,PAYLOAD,2024-08-05 15:25:12,15.08847962,0.0001407,53.2161,182.5409,92.4418,267.6735,2.8699e-05,1.69e-06,0.0,0 STARLINK-4256,1 52994U 22076J   24218.64250715  .00000169  00000-0  28699-4 0  9997,2 52994  53.2161 182.5409 0001407  92.4418 267.6735 15.08847962115124,6917.856,95.437,540.694,538.748,0.0
52994.0,STARLINK-4256,PAYLOAD,2024-08-06 04:08:20,15.08819885,0.0001533,53.2177,180.1632,89.3201,270.7967,-0.0001155,-2.125e-05,0.0,0 STARLINK-4256,1 52994U 22076J   24219.17245381 -.00002125  00000-0 -11550-3 0  9992,2 52994  53.2177 180.1632 0001533  89.3201 270.7967 15.08819885115673,6917.942,95.439,540.867,538.746,0.0
52994.0,STARLINK-4256,PAYLOAD,2024-08-07 02:23:42,15.08839356,0.0001651,53.2178,176.0016,76.4515,283.6661,9.407e-05,1.209e-05,0.0,0 STARLINK-4256,1 52994U 22076J   24220.09980039  .00001209  00000-0  94070-4 0  9990,2 52994  53.2178 176.0016 0001651  76.4515 283.6661 15.08839356115815,6917.882,95.438,540.889,538.605,0.0
52994.0,STARLINK-4256,PAYLOAD,2024-08-08 05:25:16,15.08833895,0.0001332,53.2171,170.9387,96.2329,263.8815,0.00027549,4.099e-05,0.0,0 STARLINK-4256,1 52994U 22076J   24221.22588046  .00004099  00000-0  27549-3 0  9994,2 52994  53.2171 170.9387 0001332  96.2329 263.8815 15.08833895115511,6917.899,95.438,540.686,538.843,0.0
52994.0,STARLINK-4256,PAYLOAD,2024-08-09 13:12:58,15.08851267,0.0001221,53.2167,164.9934,88.1526,271.9606,3.1271e-05,2.1e-06,0.0,0 STARLINK-4256,1 52994U 22076J   24222.55067309  .00000210  00000-0  31271-4 0  9994,2 52994  53.2167 164.9934 0001221  88.1526 271.9606 15.08851267116188,6917.846,95.437,540.556,538.866,0.0
52994.0,STARLINK-4256,PAYLOAD,2024-08-10 05:06:49,15.08848949,0.0001354,53.2177,162.0263,123.5237,236.5884,0.00014333,1.994e-05,0.0,0 STARLINK-4256,1 52994U 22076J   24223.21307156  .00001994  00000-0  14333-3 0  9994,2 52994  53.2177 162.0263 0001354 123.5237 236.5884 15.08848949115810,6917.853,95.437,540.655,538.781,0.0
52994.0,STARLINK-4256,PAYLOAD,2024-08-11 01:46:51,15.08838149,0.0001389,53.2161,158.1584,95.7161,264.399,0.00010352,1.36e-05,0.0,0 STARLINK-4256,1 52994U 22076J   24224.07420239  .00001360  00000-0  10352-3 0  9991,2 52994  53.2161 158.1584 0001389  95.7161 264.3990 15.08838149116414,6917.886,95.438,540.712,538.79,0.0
52994.0,STARLINK-4256,PAYLOAD,2024-08-11 12:54:30,15.08868796,0.0001676,53.2178,156.0752,71.7591,288.3583,0.00020713,3.012e-05,0.0,0 STARLINK-4256,1 52994U 22076J   24224.53785755  .00003012  00000-0  20713-3 0  9997,2 52994  53.2178 156.0752 0001676  71.7591 288.3583 15.08868796116488,6917.792,95.436,540.817,538.498,0.0
52994.0,STARLINK-4256,PAYLOAD,2024-08-11 19:16:05,15.08841352,0.0002136,53.2177,154.8882,73.2169,286.9058,0.00010373,1.363e-05,0.0,0 STARLINK-4256,1 52994U 22076J   24224.80283747  .00001363  00000-0  10373-3 0  9999,2 52994  53.2177 154.8882 0002136  73.2169 286.9058 15.08841352116522,6917.876,95.437,541.219,538.264,0.0
52994.0,STARLINK-4256,PAYLOAD,2024-08-12 04:48:25,15.08819393,0.0001278,53.2165,153.102,88.5341,271.5797,-0.00022727,-3.901e-05,0.0,0 STARLINK-4256,1 52994U 22076J   24225.20029902 -.00003901  00000-0 -22727-3 0  9993,2 52994  53.2165 153.1020 0001278  88.5341 271.5797 15.08819393116588,6917.943,95.439,540.692,538.924,0.0
52994.0,STARLINK-4256,PAYLOAD,2024-08-12 19:06:52,15.0884847,0.0001417,53.2175,150.4266,89.6446,270.4708,1.7107e-05,-1.6e-07,0.0,0 STARLINK-4256,1 52994U 22076J   24225.79643601 -.00000016  00000-0  17107-4 0  9995,2 52994  53.2175 150.4266 0001417  89.6446 270.4708 15.08848470116672,6917.854,95.437,540.7,538.739,0.0
52994.0,STARLINK-4256,PAYLOAD,2024-08-13 04:39:15,15.0878866,0.000169,53.2176,148.6428,98.2212,261.8972,-0.00048526,-7.992e-05,0.0,0 STARLINK-4256,1 52994U 22076J   24226.19392726 -.00007992  00000-0 -48526-3 0  9998,2 52994  53.2176 148.6428 0001690  98.2212 261.8972 15.08788660116730,6918.037,95.441,541.071,538.733,0.0
52994.0,STARLINK-4256,PAYLOAD,2024-08-13 18:57:43,15.08799935,0.0001697,53.2174,145.9663,92.3658,267.7529,-0.00018614,-3.246e-05,0.0,0 STARLINK-4256,1 52994U 22076J   24226.79008160 -.00003246  00000-0 -18614-3 0  9993,2 52994  53.2174 145.9663 0001697  92.3658 267.7529 15.08799935116825,6918.003,95.44,541.042,538.694,0.0
52994.0,STARLINK-4256,PAYLOAD,2024-08-13 22:08:28,15.08818519,0.0001691,53.2174,145.3726,105.0193,255.0987,-2.1353e-05,-6.28e-06,0.0,0 STARLINK-4256,1 52994U 22076J   24226.92254703 -.00000628  00000-0 -21353-4 0  9990,2 52994  53.2174 145.3726 0001691 105.0193 255.0987 15.08818519116377,6917.946,95.439,540.981,538.641,0.0
52994.0,STARLINK-4256,PAYLOAD,2024-08-14 04:30:00,15.0883092,0.0001485,53.2172,144.1807,88.9539,271.1623,-5.9664e-05,-1.237e-05,0.0,0 STARLINK-4256,1 52994U 22076J   24227.18750450 -.00001237  00000-0 -59664-4 0  9992,2 52994  53.2172 144.1807 0001485  88.9539 271.1623 15.08830920116888,6917.908,95.438,540.8,538.746,0.0
52994.0,STARLINK-4256,PAYLOAD,2024-08-14 21:59:13,15.08849185,0.000175,53.2173,140.9099,102.0252,258.0936,0.00019522,2.821e-05,0.0,0 STARLINK-4256,1 52994U 22076J   24227.91612999  .00002821  00000-0  19522-3 0  9994,2 52994  53.2173 140.9099 0001750 102.0252 258.0936 15.08849185116526,6917.852,95.437,540.928,538.507,0.0
52994.0,STARLINK-4256,PAYLOAD,2024-08-15 01:10:00,15.08853422,0.000177,53.2149,140.3183,96.8579,263.2615,0.0004934,7.576e-05,0.0,0 STARLINK-4256,1 52994U 22076J   24228.04861820  .00007576  00000-0  49340-3 0  9991,2 52994  53.2149 140.3183 0001770  96.8579 263.2615 15.08853422117017,6917.839,95.437,540.929,538.48,0.0
52994.0,STARLINK-4256,PAYLOAD,2024-08-15 10:42:19,15.08871533,0.0001851,53.216,138.5331,101.3393,258.7807,0.0010601,0.00016638,0.0,0 STARLINK-4256,1 52994U 22076J   24228.44605430  .00016638  00000-0  10601-2 0  9994,2 52994  53.2160 138.5331 0001851 101.3393 258.7807 15.08871533116609,6917.784,95.436,540.929,538.369,0.0
52994.0,STARLINK-4256,PAYLOAD,2024-08-15 21:50:01,15.08840485,0.0001742,53.2155,136.4518,91.0217,269.0975,-5.3294e-05,-1.136e-05,0.0,0 STARLINK-4256,1 52994U 22076J   24228.90974162 -.00001136  00000-0 -53294-4 0  9992,2 52994  53.2155 136.4518 0001742  91.0217 269.0975 15.08840485116676,6917.879,95.438,540.949,538.539,0.0
52994.0,STARLINK-4256,PAYLOAD,2024-08-16 01:00:47,15.08847779,0.0001726,53.2156,135.8586,95.8748,264.2441,-0.00028014,-4.745e-05,0.0,0 STARLINK-4256,1 52994U 22076J   24229.04221268 -.00004745  00000-0 -28014-3 0  9990,2 52994  53.2156 135.8586 0001726  95.8748 264.2441 15.08847779117161,6917.857,95.437,540.916,538.528,0.0
52994.0,STARLINK-4256,PAYLOAD,2024-08-17 02:26:57,15.08843417,0.0001597,53.2158,131.0974,83.9653,276.1521,0.00029533,4.416e-05,0.0,0 STARLINK-4256,1 52994U 22076J   24230.10205586  .00004416  00000-0  29533-3 0  9994,2 52994  53.2158 131.0974 0001597  83.9653 276.1521 15.08843417117325,6917.87,95.437,540.84,538.63,0.0
52994.0,STARLINK-4256,PAYLOAD,2024-08-18 02:17:44,15.08838682,0.0001368,53.2158,126.6374,97.7503,262.3645,5.8841e-05,6.49e-06,0.0,0 STARLINK-4256,1 52994U 22076J   24231.09565844  .00000649  00000-0  58841-4 0  9998,2 52994  53.2158 126.6374 0001368  97.7503 262.3645 15.08838682117470,6917.884,95.438,540.696,538.803,0.0
52994.0,STARLINK-4256,PAYLOAD,2024-08-18 21:22:22,15.08844946,0.000139,53.2166,123.0678,101.1359,258.9789,0.00020627,2.997e-05,0.0,0 STARLINK-4256,1 52994U 22076J   24231.89053658  .00002997  00000-0  20627-3 0  9999,2 52994  53.2166 123.0678 0001390 101.1359 258.9789 15.08844946117123,6917.865,95.437,540.692,538.769,0.0
52994.0,STARLINK-4256,PAYLOAD,2024-08-19 10:05:27,15.088469,0.0001273,53.2166,120.6867,106.1908,253.9224,0.00019944,2.888e-05,0.0,0 STARLINK-4256,1 52994U 22076J   24232.42045408  .00002888  00000-0  19944-3 0  9992,2 52994  53.2166 120.6867 0001273 106.1908 253.9224 15.08846900117672,6917.859,95.437,540.605,538.844,0.0
52994.0,STARLINK-4256,PAYLOAD,2024-08-19 21:13:09,15.08835959,0.0001356,53.2159,118.608,97.1558,262.9588,1.1377e-05,-1.07e-06,0.0,0 STARLINK-4256,1 52994U 22076J   24232.88414163 -.00000107  00000-0  11377-4 0  9996,2 52994  53.2159 118.6080 0001356  97.1558 262.9588 15.08835959117743,6917.893,95.438,540.696,538.82,0.0
52994.0,STARLINK-4256,PAYLOAD,2024-08-19 22:48:32,15.08836968,0.0001392,53.2159,118.3106,96.3286,263.7865,2.9732e-05,1.85e-06,0.0,0 STARLINK-4256,1 52994U 22076J   24232.95038147  .00000185  00000-0  29732-4 0  9997,2 52994  53.2159 118.3106 0001392  96.3286 263.7865 15.08836968117285,6917.89,95.438,540.718,538.792,0.0
52994.0,STARLINK-4256,PAYLOAD,2024-08-20 21:03:56,15.08850412,0.000145,53.2162,114.1446,103.4047,256.7107,0.00019115,2.756e-05,0.0,0 STARLINK-4256,1 52994U 22076J   24233.87773402  .00002756  00000-0  19115-3 0  9998,2 52994  53.2162 114.1446 0001450 103.4047 256.7107 15.08850412117898,6917.849,95.437,540.717,538.71,0.0
